{
  "norad_id": 42989,
  "name": "SKYSAT-C9",
  "history": [
    {
      "epoch": "2026-03-28T22:57:11.702016",
      "apogee_km": 454.24043759499364,
      "perigee_km": 440.9575553458626,
      "latitude_deg": 80.20453492729838,
      "longitude_deg": 10.713002240052447,
      "semi_major_axis_km": 6825.735996470428,
      "eccentricity": 0.000973,
      "inclination_deg": 97.429,
      "raan_deg": 224.3715,
      "arg_perigee_deg": 71.0783,
      "mean_anomaly_deg": 289.1517,
      "mean_motion_rev_day": 15.39495883
    }
  ]
}